start=new Date('2023-04-28T00:00:00.000Z').valueOf();
sats=[{"PERIAPSIS":"558.152","RCS_SIZE":"LARGE","MEAN_MOTION_DDOT":"0.0000000000000","GP_ID":"230842601","DECAY_DATE":null,"RA_OF_ASC_NODE":"253.9883","SEMIMAJOR_AXIS":"6937.270","INCLINATION":"42.9999","TIME_SYSTEM":"UTC","SITE":"AFETR","CLASSIFICATION_TYPE":"U","LAUNCH_DATE":"2023-02-02","OBJECT_TYPE":"PAYLOAD","MEAN_ANOMALY":"339.8287","REV_AT_EPOCH":"1328","MEAN_MOTION":"15.02518603","CENTER_NAME":"EARTH","PERIOD":"95.839","ARG_OF_PERICENTER":"274.2788","EPOCH":"2023-04-27T22:00:00.999936","APOAPSIS":"560.118","OBJECT_ID":"2023-015L","TLE_LINE1":"1 55459U 23015L   23117.91667824  .00026636  00000-0  19803-2 0  9992","REF_FRAME":"TEME","TLE_LINE2":"2 55459  42.9999 253.9883 0001417 274.2788 339.8287 15.02518603 13286","OBJECT_NAME":"STARLINK-5669","FILE":"3894829","MEAN_MOTION_DOT":"0.00026636","COUNTRY_CODE":"US","MEAN_ELEMENT_THEORY":"SGP4","EPHEMERIS_TYPE":"0","ECCENTRICITY":"0.00014170","NORAD_CAT_ID":"55459","ELEMENT_SET_NO":"999","BSTAR":"0.00198030000000"},{"CLASSIFICATION_TYPE":"U","SITE":"AFETR","TIME_SYSTEM":"UTC","INCLINATION":"42.9999","OBJECT_TYPE":"PAYLOAD","MEAN_ANOMALY":"348.8530","REV_AT_EPOCH":"1328","LAUNCH_DATE":"2023-02-02","DECAY_DATE":null,"GP_ID":"230842427","RCS_SIZE":"LARGE","PERIAPSIS":"557.664","MEAN_MOTION_DDOT":"0.0000000000000","SEMIMAJOR_AXIS":"6937.185","RA_OF_ASC_NODE":"253.9452","MEAN_MOTION_DOT":"0.00030579","FILE":"3894814","COUNTRY_CODE":"US","OBJECT_NAME":"STARLINK-5678","EPHEMERIS_TYPE":"0","ELEMENT_SET_NO":"999","BSTAR":"0.00226820000000","ECCENTRICITY":"0.00019970","NORAD_CAT_ID":"55460","MEAN_ELEMENT_THEORY":"SGP4","EPOCH":"2023-04-27T22:00:00.999936","PERIOD":"95.837","ARG_OF_PERICENTER":"283.1673","APOAPSIS":"560.435","MEAN_MOTION":"15.02546374","CENTER_NAME":"EARTH","TLE_LINE1":"1 55460U 23015M   23117.91667824  .00030579  00000-0  22682-2 0  9994","TLE_LINE2":"2 55460  42.9999 253.9452 0001997 283.1673 348.8530 15.02546374 13282","REF_FRAME":"TEME","OBJECT_ID":"2023-015M"},{"RA_OF_ASC_NODE":"255.8295","SEMIMAJOR_AXIS":"6937.188","MEAN_MOTION_DDOT":"0.0000000000000","RCS_SIZE":"LARGE","PERIAPSIS":"558.009","DECAY_DATE":null,"GP_ID":"230838847","LAUNCH_DATE":"2023-02-02","REV_AT_EPOCH":"130","MEAN_ANOMALY":"328.4660","OBJECT_TYPE":"PAYLOAD","TIME_SYSTEM":"UTC","INCLINATION":"42.9999","CLASSIFICATION_TYPE":"U","SITE":"AFETR","OBJECT_ID":"2023-015N","TLE_LINE2":"2 55461  42.9999 255.8295 0001505 268.5482 328.4660 15.02545112  1306","REF_FRAME":"TEME","TLE_LINE1":"1 55461U 23015N   23117.58335648 -.00028146  00000-0 -20763-2 0  9991","CENTER_NAME":"EARTH","MEAN_MOTION":"15.02545112","APOAPSIS":"560.098","PERIOD":"95.837","EPOCH":"2023-04-27T14:00:01.999872","ARG_OF_PERICENTER":"268.5482","MEAN_ELEMENT_THEORY":"SGP4","ELEMENT_SET_NO":"999","BSTAR":"-0.00207630000000","NORAD_CAT_ID":"55461","ECCENTRICITY":"0.00015050","EPHEMERIS_TYPE":"0","OBJECT_NAME":"STARLINK-5646","COUNTRY_CODE":"US","MEAN_MOTION_DOT":"-0.00028146","FILE":"3894751"},{"OBJECT_ID":"2023-015P","TLE_LINE2":"2 55462  43.0023 256.3072 0001988 257.1396 102.9224 15.02513987 13229","REF_FRAME":"TEME","TLE_LINE1":"1 55462U 23015P   23117.45758260  .00006095  00000-0  46616-3 0  9990","CENTER_NAME":"EARTH","MEAN_MOTION":"15.02513987","APOAPSIS":"560.528","PERIOD":"95.839","ARG_OF_PERICENTER":"257.1396","EPOCH":"2023-04-27T10:58:55.136640","MEAN_ELEMENT_THEORY":"SGP4","ELEMENT_SET_NO":"999","BSTAR":"0.00046616000000","NORAD_CAT_ID":"55462","ECCENTRICITY":"0.00019880","EPHEMERIS_TYPE":"0","OBJECT_NAME":"STARLINK-5673","COUNTRY_CODE":"US","MEAN_MOTION_DOT":"0.00006095","FILE":"3894751","RA_OF_ASC_NODE":"256.3072","SEMIMAJOR_AXIS":"6937.284","MEAN_MOTION_DDOT":"0.0000000000000","RCS_SIZE":"LARGE","PERIAPSIS":"557.770","DECAY_DATE":null,"GP_ID":"230839597","LAUNCH_DATE":"2023-02-02","REV_AT_EPOCH":"1322","MEAN_ANOMALY":"102.9224","OBJECT_TYPE":"PAYLOAD","INCLINATION":"43.0023","TIME_SYSTEM":"UTC","CLASSIFICATION_TYPE":"U","SITE":"AFETR"},{"OBJECT_TYPE":"PAYLOAD","MEAN_ANOMALY":"102.0706","REV_AT_EPOCH":"1322","LAUNCH_DATE":"2023-02-02","CLASSIFICATION_TYPE":"U","SITE":"AFETR","INCLINATION":"43.0017","TIME_SYSTEM":"UTC","SEMIMAJOR_AXIS":"6937.261","RA_OF_ASC_NODE":"256.3503","DECAY_DATE":null,"GP_ID":"230839849","RCS_SIZE":"LARGE","PERIAPSIS":"557.770","MEAN_MOTION_DDOT":"0.0000000000000","EPHEMERIS_TYPE":"0","BSTAR":"0.00042946000000","ELEMENT_SET_NO":"999","ECCENTRICITY":"0.00019550","NORAD_CAT_ID":"55463","MEAN_ELEMENT_THEORY":"SGP4","MEAN_MOTION_DOT":"0.00005600","FILE":"3894751","COUNTRY_CODE":"US","OBJECT_NAME":"STARLINK-5677","TLE_LINE1":"1 55463U 23015Q   23117.46313564  .00005600  00000-0  42946-3 0  9999","TLE_LINE2":"2 55463  43.0017 256.3503 0001955 257.9918 102.0706 15.02521582 13220","REF_FRAME":"TEME","OBJECT_ID":"2023-015Q","PERIOD":"95.839","EPOCH":"2023-04-27T11:06:54.919296","ARG_OF_PERICENTER":"257.9918","APOAPSIS":"560.482","MEAN_MOTION":"15.02521582","CENTER_NAME":"EARTH"},{"SEMIMAJOR_AXIS":"6937.931","RA_OF_ASC_NODE":"256.2493","DECAY_DATE":null,"GP_ID":"230840597","MEAN_MOTION_DDOT":"0.0000000000000","RCS_SIZE":"LARGE","PERIAPSIS":"559.274","REV_AT_EPOCH":"1322","MEAN_ANOMALY":"82.3909","OBJECT_TYPE":"PAYLOAD","LAUNCH_DATE":"2023-02-02","CLASSIFICATION_TYPE":"U","SITE":"AFETR","TIME_SYSTEM":"UTC","INCLINATION":"43.0014","TLE_LINE2":"2 55464  43.0014 256.2493 0000752 277.6848  82.3909 15.02303889 13223","REF_FRAME":"TEME","TLE_LINE1":"1 55464U 23015R   23117.44984042  .00049331  00000-0  36637-2 0  9991","OBJECT_ID":"2023-015R","APOAPSIS":"560.318","PERIOD":"95.853","EPOCH":"2023-04-27T10:47:46.212288","ARG_OF_PERICENTER":"277.6848","CENTER_NAME":"EARTH","MEAN_MOTION":"15.02303889","ELEMENT_SET_NO":"999","BSTAR":"0.00366370000000","ECCENTRICITY":"0.00007520","NORAD_CAT_ID":"55464","EPHEMERIS_TYPE":"0","MEAN_ELEMENT_THEORY":"SGP4","COUNTRY_CODE":"US","MEAN_MOTION_DOT":"0.00049331","FILE":"3894751","OBJECT_NAME":"STARLINK-5676"},{"OBJECT_NAME":"STARLINK-5674","COUNTRY_CODE":"US","MEAN_MOTION_DOT":"0.00034947","FILE":"3894751","MEAN_ELEMENT_THEORY":"SGP4","BSTAR":"0.00260080000000","ELEMENT_SET_NO":"999","NORAD_CAT_ID":"55465","ECCENTRICITY":"0.00008110","EPHEMERIS_TYPE":"0","CENTER_NAME":"EARTH","MEAN_MOTION":"15.02367570","APOAPSIS":"560.163","ARG_OF_PERICENTER":"229.6947","PERIOD":"95.849","EPOCH":"2023-04-27T10:54:09.016128","OBJECT_ID":"2023-015S","TLE_LINE2":"2 55465  43.0007 256.2816 0000811 229.6947 130.3825 15.02367570 13226","REF_FRAME":"TEME","TLE_LINE1":"1 55465U 23015S   23117.45427102  .00034947  00000-0  26008-2 0  9990","INCLINATION":"43.0007","TIME_SYSTEM":"UTC","CLASSIFICATION_TYPE":"U","SITE":"AFETR","LAUNCH_DATE":"2023-02-02","REV_AT_EPOCH":"1322","MEAN_ANOMALY":"130.3825","OBJECT_TYPE":"PAYLOAD","MEAN_MOTION_DDOT":"0.0000000000000","RCS_SIZE":"LARGE","PERIAPSIS":"559.037","DECAY_DATE":null,"GP_ID":"230839347","RA_OF_ASC_NODE":"256.2816","SEMIMAJOR_AXIS":"6937.735"},{"FILE":"3894751","MEAN_MOTION_DOT":"0.00008289","COUNTRY_CODE":"US","OBJECT_NAME":"STARLINK-5628","EPHEMERIS_TYPE":"0","NORAD_CAT_ID":"55466","ECCENTRICITY":"0.00010280","ELEMENT_SET_NO":"999","BSTAR":"0.00062828000000","MEAN_ELEMENT_THEORY":"SGP4","EPOCH":"2023-04-27T10:31:45.312096","PERIOD":"95.839","ARG_OF_PERICENTER":"305.6708","APOAPSIS":"559.851","MEAN_MOTION":"15.02517823","CENTER_NAME":"EARTH","TLE_LINE1":"1 55466U 23015T   23117.43871889  .00008289  00000-0  62828-3 0  9995","REF_FRAME":"TEME","TLE_LINE2":"2 55466  43.0008 256.1648 0001028 305.6708  54.4038 15.02517823 13221","OBJECT_ID":"2023-015T","SITE":"AFETR","CLASSIFICATION_TYPE":"U","INCLINATION":"43.0008","TIME_SYSTEM":"UTC","OBJECT_TYPE":"PAYLOAD","REV_AT_EPOCH":"1322","MEAN_ANOMALY":"54.4038","LAUNCH_DATE":"2023-02-02","GP_ID":"230839098","DECAY_DATE":null,"PERIAPSIS":"558.424","RCS_SIZE":"LARGE","MEAN_MOTION_DDOT":"0.0000000000000","SEMIMAJOR_AXIS":"6937.272","RA_OF_ASC_NODE":"256.1648"},{"DECAY_DATE":null,"GP_ID":"230840349","MEAN_MOTION_DDOT":"0.0000000000000","RCS_SIZE":"LARGE","PERIAPSIS":"557.538","SEMIMAJOR_AXIS":"6937.057","RA_OF_ASC_NODE":"255.6558","CLASSIFICATION_TYPE":"U","SITE":"AFETR","INCLINATION":"42.9997","TIME_SYSTEM":"UTC","MEAN_ANOMALY":"50.5011","REV_AT_EPOCH":"130","OBJECT_TYPE":"PAYLOAD","LAUNCH_DATE":"2023-02-02","APOAPSIS":"560.306","EPOCH":"2023-04-27T14:00:01.999872","PERIOD":"95.835","ARG_OF_PERICENTER":"258.6059","CENTER_NAME":"EARTH","MEAN_MOTION":"15.02587856","TLE_LINE2":"2 55467  42.9997 255.6558 0001995 258.6059  50.5011 15.02587856  1307","REF_FRAME":"TEME","TLE_LINE1":"1 55467U 23015U   23117.58335648 -.00073759  00000-0 -54948-2 0  9999","OBJECT_ID":"2023-015U","COUNTRY_CODE":"US","MEAN_MOTION_DOT":"-0.00073759","FILE":"3894751","OBJECT_NAME":"STARLINK-5679","BSTAR":"-0.00549480000000","ELEMENT_SET_NO":"999","ECCENTRICITY":"0.00019950","NORAD_CAT_ID":"55467","EPHEMERIS_TYPE":"0","MEAN_ELEMENT_THEORY":"SGP4"},{"RA_OF_ASC_NODE":"254.4209","SEMIMAJOR_AXIS":"6937.212","MEAN_MOTION_DDOT":"0.0000000000000","PERIAPSIS":"557.366","RCS_SIZE":"LARGE","GP_ID":"230842495","DECAY_DATE":null,"LAUNCH_DATE":"2023-02-02","REV_AT_EPOCH":"1327","MEAN_ANOMALY":"102.2755","OBJECT_TYPE":"PAYLOAD","INCLINATION":"43.0005","TIME_SYSTEM":"UTC","SITE":"AFETR","CLASSIFICATION_TYPE":"U","OBJECT_ID":"2023-015V","REF_FRAME":"TEME","TLE_LINE2":"2 55468  43.0005 254.4209 0002467 257.7811 102.2755 15.02537479 13276","TLE_LINE1":"1 55468U 23015V   23117.77886182  .00007849  00000-0  59542-3 0  9996","CENTER_NAME":"EARTH","MEAN_MOTION":"15.02537479","APOAPSIS":"560.788","PERIOD":"95.838","ARG_OF_PERICENTER":"257.7811","EPOCH":"2023-04-27T18:41:33.661248","MEAN_ELEMENT_THEORY":"SGP4","NORAD_CAT_ID":"55468","ECCENTRICITY":"0.00024670","BSTAR":"0.00059542000000","ELEMENT_SET_NO":"999","EPHEMERIS_TYPE":"0","OBJECT_NAME":"STARLINK-5672","COUNTRY_CODE":"US","FILE":"3894822","MEAN_MOTION_DOT":"0.00007849"}];
